NORAD_CAT_ID,OBJECT_NAME,OBJECT_TYPE,EPOCH,MEAN_MOTION,ECCENTRICITY,INCLINATION,RA_OF_ASC_NODE,ARG_OF_PERICENTER,MEAN_ANOMALY,BSTAR,MEAN_MOTION_DOT,MEAN_MOTION_DDOT,TLE_LINE0,TLE_LINE1,TLE_LINE2,SEMIMAJOR_AXIS,PERIOD,APOGEE,PERIGEE,DECAYED
53436.0,STARLINK-4527,PAYLOAD,2023-12-07 15:01:35,15.08840339,0.0001492,53.215,198.6793,115.5238,244.5909,5.8615e-05,6.45e-06,0.0,0 STARLINK-4527,1 53436U 22097BA  23341.62610105  .00000645  00000-0  58615-4 0  9999,2 53436  53.2150 198.6793 0001492 115.5238 244.5909 15.08840339 74536,6917.879,95.438,540.777,538.712,0.0
53436.0,STARLINK-4527,PAYLOAD,2023-12-08 00:33:53,15.08841862,0.0001133,53.2147,196.8978,119.5274,240.5831,8.9511e-05,1.137e-05,0.0,0 STARLINK-4527,1 53436U 22097BA  23342.02354007  .00001137  00000-0  89511-4 0  9996,2 53436  53.2147 196.8978 0001133 119.5274 240.5831 15.08841862 74591,6917.875,95.437,540.523,538.956,0.0
53436.0,STARLINK-4527,PAYLOAD,2023-12-09 16:18:32,15.08839393,0.0001288,53.2143,189.4627,112.821,247.2919,3.5532e-05,2.78e-06,0.0,0 STARLINK-4527,1 53436U 22097BA  23343.67954223  .00000278  00000-0  35532-4 0  9993,2 53436  53.2143 189.4627 0001288 112.8210 247.2919 15.08839393 74365,6917.882,95.438,540.638,538.856,0.0
53436.0,STARLINK-4527,PAYLOAD,2023-12-10 19:20:05,15.08840855,0.0001209,53.2155,184.4071,105.1572,254.9553,3.7409e-05,3.08e-06,0.0,0 STARLINK-4527,1 53436U 22097BA  23344.80562350  .00000308  00000-0  37409-4 0  9994,2 53436  53.2155 184.4071 0001209 105.1572 254.9553 15.08840855 74538,6917.878,95.438,540.579,538.906,0.0
53436.0,STARLINK-4527,PAYLOAD,2023-12-10 20:55:29,15.08838642,0.0001128,53.2151,184.1114,98.4906,261.6214,6.2588e-05,7.08e-06,0.0,0 STARLINK-4527,1 53436U 22097BA  23344.87186567  .00000708  00000-0  62588-4 0  9993,2 53436  53.2151 184.1114 0001128  98.4906 261.6214 15.08838642 75029,6917.885,95.438,540.53,538.969,0.0
53436.0,STARLINK-4527,PAYLOAD,2023-12-11 20:46:16,15.08842381,0.0001174,53.2152,179.6506,94.2586,265.854,8.107e-05,1.003e-05,0.0,0 STARLINK-4527,1 53436U 22097BA  23345.86546297  .00001003  00000-0  81070-4 0  9999,2 53436  53.2152 179.6506 0001174  94.2586 265.8540 15.08842381 75172,6917.873,95.437,540.55,538.926,0.0
53436.0,STARLINK-4527,PAYLOAD,2023-12-12 19:01:39,15.08841942,0.0001173,53.2152,175.4893,95.7468,264.3657,5.7602e-05,6.29e-06,0.0,0 STARLINK-4527,1 53436U 22097BA  23346.79282377  .00000629  00000-0  57602-4 0  9995,2 53436  53.2152 175.4893 0001173  95.7468 264.3657 15.08841942 75310,6917.874,95.437,540.551,538.928,0.0
53436.0,STARLINK-4527,PAYLOAD,2023-12-13 18:52:26,15.08842822,0.0001205,53.2151,171.0296,91.9553,268.1577,4.1456e-05,3.72e-06,0.0,0 STARLINK-4527,1 53436U 22097BA  23347.78642262  .00000372  00000-0  41456-4 0  9993,2 53436  53.2151 171.0296 0001205  91.9553 268.1577 15.08842822 74980,6917.872,95.437,540.57,538.903,0.0
53436.0,STARLINK-4527,PAYLOAD,2023-12-14 17:07:50,15.08839066,0.0001254,53.2155,166.862,95.8306,264.283,3.4981e-05,2.69e-06,0.0,0 STARLINK-4527,1 53436U 22097BA  23348.71378447  .00000269  00000-0  34981-4 0  9998,2 53436  53.2155 166.8620 0001254  95.8306 264.2830 15.08839066 75605,6917.883,95.438,540.616,538.881,0.0
53436.0,STARLINK-4527,PAYLOAD,2023-12-15 18:34:01,15.08835374,0.0001262,53.2159,162.1037,95.7607,264.3529,1.2996e-05,-8.1e-07,0.0,0 STARLINK-4527,1 53436U 22097BA  23349.77362957 -.00000081  00000-0  12996-4 0  9999,2 53436  53.2159 162.1037 0001262  95.7607 264.3529 15.08835374 75280,6917.895,95.438,540.633,538.886,0.0
53436.0,STARLINK-4527,PAYLOAD,2023-12-16 18:24:48,15.08836549,0.0001263,53.2163,157.6431,86.6513,273.4624,8.163e-05,1.011e-05,0.0,0 STARLINK-4527,1 53436U 22097BA  23350.76723051  .00001011  00000-0  81630-4 0  9990,2 53436  53.2163 157.6431 0001263  86.6513 273.4624 15.08836549 75910,6917.891,95.438,540.63,538.882,0.0
53436.0,STARLINK-4527,PAYLOAD,2023-12-17 15:04:49,15.0883991,0.0001241,53.2161,153.7774,87.5921,272.5214,9.6981e-05,1.256e-05,0.0,0 STARLINK-4527,1 53436U 22097BA  23351.62834984  .00001256  00000-0  96981-4 0  9990,2 53436  53.2161 153.7774 0001241  87.5921 272.5214 15.08839910 76049,6917.881,95.438,540.604,538.887,0.0
53436.0,STARLINK-4527,PAYLOAD,2023-12-17 16:40:12,15.0884091,0.0001243,53.216,153.4802,88.4204,271.6931,0.00010593,1.398e-05,0.0,0 STARLINK-4527,1 53436U 22097BA  23351.69458906  .00001398  00000-0  10593-3 0  9994,2 53436  53.2160 153.4802 0001243  88.4204 271.6931 15.08840910 75578,6917.878,95.437,540.602,538.883,0.0
53436.0,STARLINK-4527,PAYLOAD,2023-12-18 14:55:36,15.08844712,0.0001244,53.2161,149.3168,86.8711,273.2424,9.0791e-05,1.158e-05,0.0,0 STARLINK-4527,1 53436U 22097BA  23352.62194685  .00001158  00000-0  90791-4 0  9992,2 53436  53.2161 149.3168 0001244  86.8711 273.2424 15.08844712 76192,6917.866,95.437,540.592,538.87,0.0
53436.0,STARLINK-4527,PAYLOAD,2023-12-18 18:06:22,15.08846854,0.000126,53.2162,148.722,85.5845,274.5292,0.0001075,1.424e-05,0.0,0 STARLINK-4527,1 53436U 22097BA  23352.75442487  .00001424  00000-0  10750-3 0  9994,2 53436  53.2162 148.7220 0001260  85.5845 274.5292 15.08846854 75732,6917.859,95.437,540.596,538.853,0.0
53436.0,STARLINK-4527,PAYLOAD,2023-12-19 14:46:23,15.08841121,0.0001327,53.2164,144.8563,79.4771,280.637,2.6949e-05,1.41e-06,0.0,0 STARLINK-4527,1 53436U 22097BA  23353.61555025  .00000141  00000-0  26949-4 0  9996,2 53436  53.2164 144.8563 0001327  79.4771 280.6370 15.08841121 76340,6917.877,95.437,540.66,538.824,0.0
53436.0,STARLINK-4527,PAYLOAD,2023-12-19 17:57:09,15.08843814,0.0001387,53.2167,144.2612,77.8024,282.3124,4.0001e-05,3.49e-06,0.0,0 STARLINK-4527,1 53436U 22097BA  23353.74802788  .00000349  00000-0  40001-4 0  9996,2 53436  53.2167 144.2612 0001387  77.8024 282.3124 15.08843814 75886,6917.869,95.437,540.693,538.774,0.0
53436.0,STARLINK-4527,PAYLOAD,2023-12-20 16:12:33,15.0884244,0.00016,53.2177,140.0997,71.3651,288.7515,-2.3909e-05,-6.69e-06,0.0,0 STARLINK-4527,1 53436U 22097BA  23354.67539190 -.00000669  00000-0 -23909-4 0  9998,2 53436  53.2177 140.0997 0001600  71.3651 288.7515 15.08842440 76025,6917.873,95.437,540.845,538.631,0.0
53436.0,STARLINK-4527,PAYLOAD,2023-12-21 14:27:58,15.08836694,0.0001456,53.2169,135.9432,79.6176,280.498,4.081e-05,3.62e-06,0.0,0 STARLINK-4527,1 53436U 22097BA  23355.60275509  .00000362  00000-0  40810-4 0  9991,2 53436  53.2169 135.9432 0001456  79.6176 280.4980 15.08836694 76642,6917.89,95.438,540.763,538.748,0.0
53436.0,STARLINK-4527,PAYLOAD,2023-12-21 16:03:21,15.08837419,0.0001464,53.2168,135.6466,78.9057,281.21,4.5436e-05,4.35e-06,0.0,0 STARLINK-4527,1 53436U 22097BA  23355.66899467  .00000435  00000-0  45436-4 0  9992,2 53436  53.2168 135.6466 0001464  78.9057 281.2100 15.08837419 76654,6917.888,95.438,540.766,538.74,0.0
53436.0,STARLINK-4527,PAYLOAD,2023-12-22 14:18:44,15.0884218,0.0001423,53.2175,131.4807,91.9989,268.1166,0.00011036,1.469e-05,0.0,0 STARLINK-4527,1 53436U 22097BA  23356.59635062  .00001469  00000-0  11036-3 0  9990,2 53436  53.2175 131.4807 0001423  91.9989 268.1166 15.08842180 76791,6917.874,95.437,540.723,538.754,0.0
53436.0,STARLINK-4527,PAYLOAD,2023-12-22 15:54:07,15.08843787,0.0001432,53.2172,131.1831,88.1911,271.9245,0.0001253,1.707e-05,0.0,0 STARLINK-4527,1 53436U 22097BA  23356.66258944  .00001707  00000-0  12530-3 0  9993,2 53436  53.2172 131.1831 0001432  88.1911 271.9245 15.08843787 76328,6917.869,95.437,540.724,538.743,0.0
53436.0,STARLINK-4527,PAYLOAD,2023-12-23 09:23:22,15.08835938,0.0001615,53.2182,127.912,78.0108,282.1065,6.9714e-05,8.22e-06,0.0,0 STARLINK-4527,1 53436U 22097BA  23357.39123509  .00000822  00000-0  69714-4 0  9996,2 53436  53.2182 127.9120 0001615  78.0108 282.1065 15.08835938 76437,6917.893,95.438,540.875,538.641,0.0
53436.0,STARLINK-4527,PAYLOAD,2023-12-23 14:09:32,15.08840075,0.0001532,53.2177,127.0212,111.3763,248.7392,5.9875e-05,6.65e-06,0.0,0 STARLINK-4527,1 53436U 22097BA  23357.58995418  .00000665  00000-0  59875-4 0  9995,2 53436  53.2177 127.0212 0001532 111.3763 248.7392 15.08840075 76945,6917.88,95.438,540.805,538.685,0.0
53436.0,STARLINK-4527,PAYLOAD,2023-12-24 12:24:55,15.08845204,0.0001365,53.2178,122.8554,100.6377,259.4769,2.6833e-05,1.39e-06,0.0,0 STARLINK-4527,1 53436U 22097BA  23358.51731232  .00000139  00000-0  26833-4 0  9995,2 53436  53.2178 122.8554 0001365 100.6377 259.4769 15.08845204 76603,6917.864,95.437,540.674,538.785,0.0
53436.0,STARLINK-4527,PAYLOAD,2023-12-24 14:00:18,15.08846888,0.0001329,53.2174,122.5578,94.7099,265.4045,3.7814e-05,3.14e-06,0.0,0 STARLINK-4527,1 53436U 22097BA  23358.58355084  .00000314  00000-0  37814-4 0  9995,2 53436  53.2174 122.5578 0001329  94.7099 265.4045 15.08846888 77093,6917.859,95.437,540.644,538.805,0.0
53436.0,STARLINK-4527,PAYLOAD,2023-12-24 15:35:41,15.08848463,0.0001373,53.2177,122.2603,98.1307,261.984,5.7645e-05,6.3e-06,0.0,0 STARLINK-4527,1 53436U 22097BA  23358.64978907  .00000630  00000-0  57645-4 0  9992,2 53436  53.2177 122.2603 0001373  98.1307 261.9840 15.08848463 77108,6917.855,95.437,540.669,538.77,0.0
53436.0,STARLINK-4527,PAYLOAD,2023-12-25 12:15:43,15.08838211,0.00014,53.218,118.3954,99.1298,260.9852,4.0697e-05,3.6e-06,0.0,0 STARLINK-4527,1 53436U 22097BA  23359.51091729  .00000360  00000-0  40697-4 0  9996,2 53436  53.2180 118.3954 0001400  99.1298 260.9852 15.08838211 76750,6917.886,95.438,540.719,538.782,0.0
53436.0,STARLINK-4527,PAYLOAD,2023-12-25 13:51:06,15.08839805,0.0001447,53.2182,118.098,103.9128,256.2025,5.0657e-05,5.18e-06,0.0,0 STARLINK-4527,1 53436U 22097BA  23359.57715574  .00000518  00000-0  50657-4 0  9995,2 53436  53.2182 118.0980 0001447 103.9128 256.2025 15.08839805 77240,6917.881,95.438,540.747,538.745,0.0
53436.0,STARLINK-4527,PAYLOAD,2023-12-25 18:37:15,15.08847527,0.0001393,53.2175,117.2033,98.483,261.6321,0.00012166,1.649e-05,0.0,0 STARLINK-4527,1 53436U 22097BA  23359.77586931  .00001649  00000-0  12166-3 0  9998,2 53436  53.2175 117.2033 0001393  98.4830 261.6321 15.08847527 76798,6917.857,95.437,540.686,538.759,0.0
